STARLINK-2099           
1 47379U 21005AG  26068.22596165  .00000356  00000+0  24152-4 0  9997
2 47379  53.1612  15.6956 0001349  92.1215 267.9941 15.30188698283650
2025-313BE              
1 67482U 25313BE  26068.69721505  .00077178  00000+0  26504-2 0  9996
2 67482  97.3989 145.3568 0007208 335.3714  24.7181 15.29801687  7972
